0 COSMOS 970 DEB
1 10890U 77121AM  13281.82221043  .00000149  00000-0  24921-3 0  4869
2 10890 065.7772 101.1770 0129879 036.4486 068.7740 13.69079498784870
0 COSMOS 970 DEB
1 10890U 77121AM  13286.85531372  .00000123  00000-0  22017-3 0  4884
2 10890 065.7779 088.8358 0130162 033.9034 035.5305 13.69082999785564
0 COSMOS 970 DEB
1 10890U 77121AM  13289.78368821  .00000127  00000-0  22467-3 0  4890
2 10890 065.7786 081.6558 0130300 032.4086 068.7069 13.69084372785966
0 COSMOS 970 DEB
1 10890U 77121AM  13290.78604309  .00000086  00000-0  93686-4 0  4904
2 10890 065.7782 079.2067 0129470 032.3472 328.5897 13.69082992786103
0 COSMOS 970 DEB
1 10890U 77121AM  13292.39933045  .00000169  00000-0  27052-3 0  4911
2 10890 065.7789 075.2425 0130556 031.1135 000.4816 13.69085252786327
0 COSMOS 970 DEB
1 10890U 77121AM  13294.81856604  .00000205  00000-0  30998-3 0  4920
2 10890 065.7792 069.3116 0130722 029.8887 044.2595 13.69086568786652
